start=new Date('2023-04-16T00:00:00.000Z').valueOf();
sats=[{"SITE":"AFETR","MEAN_ELEMENT_THEORY":"SGP4","RA_OF_ASC_NODE":"72.1581","BSTAR":"0.00181380000000","MEAN_MOTION_DOT":"0.00026874","MEAN_MOTION_DDOT":"0.0000000000000","ELEMENT_SET_NO":"999","REF_FRAME":"TEME","PERIAPSIS":"546.416","EPOCH":"2023-04-15T08:29:46.603104","OBJECT_NAME":"STARLINK-1666","MEAN_ANOMALY":"258.5809","SEMIMAJOR_AXIS":"6925.199","TIME_SYSTEM":"UTC","FILE":"3887974","OBJECT_TYPE":"PAYLOAD","GP_ID":"230096670","CLASSIFICATION_TYPE":"U","RCS_SIZE":"LARGE","LAUNCH_DATE":"2020-09-03","ECCENTRICITY":"0.00009350","CENTER_NAME":"EARTH","DECAY_DATE":null,"NORAD_CAT_ID":"46357","PERIOD":"95.589","OBJECT_ID":"2020-062AJ","ARG_OF_PERICENTER":"101.5285","COUNTRY_CODE":"US","INCLINATION":"53.0542","TLE_LINE1":"1 46357U 20062AJ  23105.35401161  .00026874  00000-0  18138-2 0  9997","EPHEMERIS_TYPE":"0","APOAPSIS":"547.711","REV_AT_EPOCH":"14492","TLE_LINE2":"2 46357  53.0542  72.1581 0000935 101.5285 258.5809 15.06448900144923","MEAN_MOTION":"15.06448900"},{"REV_AT_EPOCH":"14469","INCLINATION":"53.0529","TLE_LINE1":"1 46358U 20062AK  23105.66547542  .00008381  00000-0  58056-3 0  9993","APOAPSIS":"547.847","EPHEMERIS_TYPE":"0","TLE_LINE2":"2 46358  53.0529  90.7605 0001002  86.0165 274.0938 15.06419676144690","MEAN_MOTION":"15.06419676","LAUNCH_DATE":"2020-09-03","CENTER_NAME":"EARTH","ECCENTRICITY":"0.00010020","RCS_SIZE":"LARGE","NORAD_CAT_ID":"46358","DECAY_DATE":null,"COUNTRY_CODE":"US","PERIOD":"95.591","OBJECT_ID":"2020-062AK","ARG_OF_PERICENTER":"86.0165","EPOCH":"2023-04-15T15:58:17.076288","SEMIMAJOR_AXIS":"6925.288","MEAN_ANOMALY":"274.0938","OBJECT_NAME":"STARLINK-1690","TIME_SYSTEM":"UTC","OBJECT_TYPE":"PAYLOAD","FILE":"3888171","GP_ID":"230126688","CLASSIFICATION_TYPE":"U","MEAN_ELEMENT_THEORY":"SGP4","SITE":"AFETR","BSTAR":"0.00058056000000","MEAN_MOTION_DOT":"0.00008381","MEAN_MOTION_DDOT":"0.0000000000000","RA_OF_ASC_NODE":"90.7605","PERIAPSIS":"546.459","ELEMENT_SET_NO":"999","REF_FRAME":"TEME"},{"CENTER_NAME":"EARTH","LAUNCH_DATE":"2020-09-03","ECCENTRICITY":"0.00009860","RCS_SIZE":"LARGE","DECAY_DATE":null,"NORAD_CAT_ID":"46359","COUNTRY_CODE":"US","PERIOD":"95.591","OBJECT_ID":"2020-062AL","ARG_OF_PERICENTER":"70.8887","REV_AT_EPOCH":"14527","INCLINATION":"53.0544","TLE_LINE1":"1 46359U 20062AL  23105.38026808  .00016973  00000-0  11552-2 0  9995","EPHEMERIS_TYPE":"0","APOAPSIS":"547.858","TLE_LINE2":"2 46359  53.0544  47.0409 0000986  70.8887 289.2208 15.06412674145271","MEAN_MOTION":"15.06412674","MEAN_ELEMENT_THEORY":"SGP4","SITE":"AFETR","BSTAR":"0.00115520000000","MEAN_MOTION_DOT":"0.00016973","MEAN_MOTION_DDOT":"0.0000000000000","RA_OF_ASC_NODE":"47.0409","PERIAPSIS":"546.492","ELEMENT_SET_NO":"999","REF_FRAME":"TEME","EPOCH":"2023-04-15T09:07:35.162112","SEMIMAJOR_AXIS":"6925.310","MEAN_ANOMALY":"289.2208","OBJECT_NAME":"STARLINK-1707","TIME_SYSTEM":"UTC","OBJECT_TYPE":"PAYLOAD","FILE":"3887974","GP_ID":"230096172","CLASSIFICATION_TYPE":"U"},{"REV_AT_EPOCH":"14526","INCLINATION":"53.0542","EPHEMERIS_TYPE":"0","TLE_LINE1":"1 46360U 20062AM  23105.26971486  .00036962  00000-0  24882-2 0  9995","APOAPSIS":"548.020","TLE_LINE2":"2 46360  53.0542  47.5361 0001108  96.3922 263.7194 15.06387345145269","MEAN_MOTION":"15.06387345","ECCENTRICITY":"0.00011080","LAUNCH_DATE":"2020-09-03","CENTER_NAME":"EARTH","RCS_SIZE":"LARGE","NORAD_CAT_ID":"46360","DECAY_DATE":null,"COUNTRY_CODE":"US","PERIOD":"95.593","OBJECT_ID":"2020-062AM","ARG_OF_PERICENTER":"96.3922","EPOCH":"2023-04-15T06:28:23.363904","MEAN_ANOMALY":"263.7194","SEMIMAJOR_AXIS":"6925.387","OBJECT_NAME":"STARLINK-1713","TIME_SYSTEM":"UTC","FILE":"3887974","OBJECT_TYPE":"PAYLOAD","GP_ID":"230096924","CLASSIFICATION_TYPE":"U","MEAN_ELEMENT_THEORY":"SGP4","SITE":"AFETR","BSTAR":"0.00248820000000","MEAN_MOTION_DOT":"0.00036962","MEAN_MOTION_DDOT":"0.0000000000000","RA_OF_ASC_NODE":"47.5361","PERIAPSIS":"546.485","ELEMENT_SET_NO":"999","REF_FRAME":"TEME"},{"REV_AT_EPOCH":"14523","INCLINATION":"53.0548","TLE_LINE1":"1 46361U 20062AN  23105.10659037  .00027551  00000-0  18608-2 0  9997","APOAPSIS":"548.076","EPHEMERIS_TYPE":"0","MEAN_MOTION":"15.06410092","TLE_LINE2":"2 46361  53.0548  48.2605 0001290  85.4746 274.6391 15.06410092145233","DECAY_DATE":null,"NORAD_CAT_ID":"46361","CENTER_NAME":"EARTH","LAUNCH_DATE":"2020-09-03","ECCENTRICITY":"0.00012900","RCS_SIZE":"LARGE","COUNTRY_CODE":"US","PERIOD":"95.591","OBJECT_ID":"2020-062AN","ARG_OF_PERICENTER":"85.4746","MEAN_ANOMALY":"274.6391","SEMIMAJOR_AXIS":"6925.318","OBJECT_NAME":"STARLINK-1722","EPOCH":"2023-04-15T02:33:29.407968","GP_ID":"230097169","CLASSIFICATION_TYPE":"U","TIME_SYSTEM":"UTC","FILE":"3887974","OBJECT_TYPE":"PAYLOAD","BSTAR":"0.00186080000000","MEAN_MOTION_DDOT":"0.0000000000000","MEAN_MOTION_DOT":"0.00027551","RA_OF_ASC_NODE":"48.2605","MEAN_ELEMENT_THEORY":"SGP4","SITE":"AFETR","PERIAPSIS":"546.289","ELEMENT_SET_NO":"999","REF_FRAME":"TEME"},{"REF_FRAME":"TEME","ELEMENT_SET_NO":"999","PERIAPSIS":"546.473","RA_OF_ASC_NODE":"45.0825","MEAN_MOTION_DDOT":"0.0000000000000","MEAN_MOTION_DOT":"0.00023257","BSTAR":"0.00157450000000","SITE":"AFETR","MEAN_ELEMENT_THEORY":"SGP4","CLASSIFICATION_TYPE":"U","GP_ID":"230127188","OBJECT_TYPE":"PAYLOAD","FILE":"3888171","TIME_SYSTEM":"UTC","OBJECT_NAME":"STARLINK-1726","MEAN_ANOMALY":"253.5243","SEMIMAJOR_AXIS":"6925.306","EPOCH":"2023-04-15T19:33:55.747584","ARG_OF_PERICENTER":"106.5856","OBJECT_ID":"2020-062AP","PERIOD":"95.591","COUNTRY_CODE":"US","DECAY_DATE":null,"NORAD_CAT_ID":"46362","RCS_SIZE":"LARGE","ECCENTRICITY":"0.00010080","LAUNCH_DATE":"2020-09-03","CENTER_NAME":"EARTH","MEAN_MOTION":"15.06413775","TLE_LINE2":"2 46362  53.0535  45.0825 0001008 106.5856 253.5243 15.06413775145348","APOAPSIS":"547.869","TLE_LINE1":"1 46362U 20062AP  23105.81522856  .00023257  00000-0  15745-2 0  9992","EPHEMERIS_TYPE":"0","INCLINATION":"53.0535","REV_AT_EPOCH":"14534"},{"MEAN_ELEMENT_THEORY":"SGP4","SITE":"AFETR","BSTAR":"0.00220170000000","MEAN_MOTION_DOT":"0.00032674","MEAN_MOTION_DDOT":"0.0000000000000","RA_OF_ASC_NODE":"47.2003","PERIAPSIS":"546.453","REF_FRAME":"TEME","ELEMENT_SET_NO":"999","EPOCH":"2023-04-15T08:13:11.187840","MEAN_ANOMALY":"251.5547","SEMIMAJOR_AXIS":"6925.319","OBJECT_NAME":"STARLINK-1739","TIME_SYSTEM":"UTC","OBJECT_TYPE":"PAYLOAD","FILE":"3887974","GP_ID":"230095674","CLASSIFICATION_TYPE":"U","ECCENTRICITY":"0.00010550","LAUNCH_DATE":"2020-09-03","CENTER_NAME":"EARTH","RCS_SIZE":"LARGE","DECAY_DATE":null,"NORAD_CAT_ID":"46363","COUNTRY_CODE":"US","PERIOD":"95.592","OBJECT_ID":"2020-062AQ","ARG_OF_PERICENTER":"108.5557","REV_AT_EPOCH":"14527","INCLINATION":"53.0551","EPHEMERIS_TYPE":"0","TLE_LINE1":"1 46363U 20062AQ  23105.34249060  .00032674  00000-0  22017-2 0  9997","APOAPSIS":"547.915","TLE_LINE2":"2 46363  53.0551  47.2003 0001055 108.5557 251.5547 15.06409627145279","MEAN_MOTION":"15.06409627"},{"OBJECT_NAME":"STARLINK-1763","SEMIMAJOR_AXIS":"6925.270","MEAN_ANOMALY":"256.5351","EPOCH":"2023-04-15T17:50:31.911360","GP_ID":"230128187","CLASSIFICATION_TYPE":"U","TIME_SYSTEM":"UTC","OBJECT_TYPE":"PAYLOAD","FILE":"3888171","RA_OF_ASC_NODE":"25.9209","BSTAR":"0.00212290000000","MEAN_MOTION_DOT":"0.00031503","MEAN_MOTION_DDOT":"0.0000000000000","SITE":"AFETR","MEAN_ELEMENT_THEORY":"SGP4","ELEMENT_SET_NO":"999","REF_FRAME":"TEME","PERIAPSIS":"546.123","INCLINATION":"53.0559","EPHEMERIS_TYPE":"0","TLE_LINE1":"1 46364U 20062AR  23105.74342490  .00031503  00000-0  21229-2 0  9997","APOAPSIS":"548.148","REV_AT_EPOCH":"14560","MEAN_MOTION":"15.06425571","TLE_LINE2":"2 46364  53.0559  25.9209 0001462 103.5801 256.5351 15.06425571145609","NORAD_CAT_ID":"46364","DECAY_DATE":null,"RCS_SIZE":"LARGE","CENTER_NAME":"EARTH","LAUNCH_DATE":"2020-09-03","ECCENTRICITY":"0.00014620","PERIOD":"95.591","OBJECT_ID":"2020-062AR","ARG_OF_PERICENTER":"103.5801","COUNTRY_CODE":"US"},{"MEAN_ANOMALY":"256.6450","SEMIMAJOR_AXIS":"6925.150","OBJECT_NAME":"STARLINK-1550","EPOCH":"2023-04-15T04:31:34.805856","CLASSIFICATION_TYPE":"U","GP_ID":"230096671","OBJECT_TYPE":"PAYLOAD","FILE":"3887974","TIME_SYSTEM":"UTC","MEAN_MOTION_DOT":"0.00037029","MEAN_MOTION_DDOT":"0.0000000000000","BSTAR":"0.00248740000000","RA_OF_ASC_NODE":"47.9004","MEAN_ELEMENT_THEORY":"SGP4","SITE":"AFETR","PERIAPSIS":"546.172","ELEMENT_SET_NO":"999","REF_FRAME":"TEME","REV_AT_EPOCH":"14524","EPHEMERIS_TYPE":"0","TLE_LINE1":"1 46365U 20062AS  23105.18859729  .00037029  00000-0  24874-2 0  9992","APOAPSIS":"547.858","INCLINATION":"53.0542","MEAN_MOTION":"15.06464858","TLE_LINE2":"2 46365  53.0542  47.9004 0001217 103.4674 256.6450 15.06464858145246","NORAD_CAT_ID":"46365","DECAY_DATE":null,"LAUNCH_DATE":"2020-09-03","ECCENTRICITY":"0.00012170","CENTER_NAME":"EARTH","RCS_SIZE":"LARGE","COUNTRY_CODE":"US","ARG_OF_PERICENTER":"103.4674","OBJECT_ID":"2020-062AS","PERIOD":"95.588"},{"EPOCH":"2023-04-15T20:11:01.907520","OBJECT_NAME":"STARLINK-1651","MEAN_ANOMALY":"276.7702","SEMIMAJOR_AXIS":"6925.094","FILE":"3888171","OBJECT_TYPE":"PAYLOAD","TIME_SYSTEM":"UTC","CLASSIFICATION_TYPE":"U","GP_ID":"230126689","SITE":"AFETR","MEAN_ELEMENT_THEORY":"SGP4","RA_OF_ASC_NODE":"44.9699","MEAN_MOTION_DDOT":"0.0000000000000","MEAN_MOTION_DOT":"0.00036056","BSTAR":"0.00242170000000","ELEMENT_SET_NO":"999","REF_FRAME":"TEME","PERIAPSIS":"545.980","TLE_LINE1":"1 46366U 20062AT  23105.84099430  .00036056  00000-0  24217-2 0  9991","EPHEMERIS_TYPE":"0","APOAPSIS":"547.938","INCLINATION":"53.0550","REV_AT_EPOCH":"14534","TLE_LINE2":"2 46366  53.0550  44.9699 0001414  83.3448 276.7702 15.06483079145347","MEAN_MOTION":"15.06483079","RCS_SIZE":"LARGE","LAUNCH_DATE":"2020-09-03","CENTER_NAME":"EARTH","ECCENTRICITY":"0.00014140","DECAY_DATE":null,"NORAD_CAT_ID":"46366","ARG_OF_PERICENTER":"83.3448","PERIOD":"95.587","OBJECT_ID":"2020-062AT","COUNTRY_CODE":"US"}];
